[{"OBJECT_NAME":"STARLINK-4074","OBJECT_ID":"2022-053Y","EPOCH":"2026-03-09T10:41:39.958368","MEAN_MOTION":15.08837037,"ECCENTRICITY":0.00013095,"INCLINATION":53.2169,"RA_OF_ASC_NODE":145.3257,"ARG_OF_PERICENTER":94.5415,"MEAN_ANOMALY":265.5727,"EPHEMERIS_TYPE":0,"CLASSIFICATION_TYPE":"U","NORAD_CAT_ID":52678,"ELEMENT_SET_NO":999,"REV_AT_EPOCH":21113,"BSTAR":1.0773696e-5,"MEAN_MOTION_DOT":-1.16e-6,"MEAN_MOTION_DDOT":0},{"OBJECT_NAME":"YUNYAO-1 44","OBJECT_ID":"2025-059B","EPOCH":"2026-03-09T23:37:33.233088","MEAN_MOTION":15.10344945,"ECCENTRICITY":0.00180831,"INCLINATION":97.6069,"RA_OF_ASC_NODE":250.8958,"ARG_OF_PERICENTER":135.5449,"MEAN_ANOMALY":224.7236,"EPHEMERIS_TYPE":0,"CLASSIFICATION_TYPE":"U","NORAD_CAT_ID":63345,"ELEMENT_SET_NO":999,"REV_AT_EPOCH":5332,"BSTAR":0.0003556422,"MEAN_MOTION_DOT":5.791e-5,"MEAN_MOTION_DDOT":0}]
